{"epoch":1784799577,"count":18318,"objects":[{"id":"25118","name":"ORBCOMM FM 6","type":"PAYLOAD","l1":"1 25118U 97084G   26203.84369569  .00000722  00000-0  23311-3 0  9992","l2":"2 25118  45.0124 241.0505 0001921 256.9729 279.0832 14.47637781499556"},{"id":"25159","name":"ORBCOMM FM 4","type":"PAYLOAD","l1":"1 25159U 98007C   26203.85781771  .00000554  00000-0  23500-3 0  9990","l2":"2 25159 107.9632 242.8382 0042043 263.9029  95.7320 14.35793412481711"},{"id":"25415","name":"ORBCOMM FM 19","type":"PAYLOAD","l1":"1 25415U 98046C   26203.95508888  .00000766  00000-0  28850-3 0  9993","l2":"2 25415  44.9940  73.5343 0003346 114.0138 274.8895 14.39552698461936"},{"id":"25416","name":"ORBCOMM FM 20","type":"PAYLOAD","l1":"1 25416U 98046D   26203.92861361  .00000541  00000-0  22348-3 0  9996","l2":"2 25416  44.9942  81.9786 0000855  60.1486 299.9447 14.38108818461933"},{"id":"25481","name":"ORBCOMM FM 27","type":"PAYLOAD","l1":"1 25481U 98053G   26203.93730441  .00000709  00000-0  27224-3 0  9995","l2":"2 25481  45.0039 165.5428 0002004 320.7599  39.3104 14.39195255455384"},{"id":"25982","name":"ORBCOMM FM 32","type":"PAYLOAD","l1":"1 25982U 99065C   26203.81237464  .00000385  00000-0  17560-3 0  9991","l2":"2 25982  45.0168   4.6056 0006353 227.1608 132.8707 14.37174775392217"},{"id":"40086","name":"ORBCOMM FM 109","type":"PAYLOAD","l1":"1 40086U 14040A   26203.50594400  .00000088  00000-0  54798-4 0  9990","l2":"2 40086  47.0030 284.4996 0001099 346.5261  13.5595 14.58874903639502"},{"id":"41182","name":"ORBCOMM FM 110","type":"PAYLOAD","l1":"1 41182U 15081D   26203.37353052  .00000615  00000-0  16607-3 0  9997","l2":"2 41182  47.0003 195.0650 0003816 250.4417 109.6057 14.58926922562761"},{"id":"41183","name":"ORBCOMM FM 118","type":"PAYLOAD","l1":"1 41183U 15081E   26202.72318850  .00000537  00000-0  14973-3 0  9990","l2":"2 41183  47.0024 198.4808 0003181 214.1701 145.8981 14.58910590562778"},{"id":"41184","name":"ORBCOMM FM 112","type":"PAYLOAD","l1":"1 41184U 15081F   26203.75428223  .00000477  00000-0  13687-3 0  9995","l2":"2 41184  46.9990 102.0528 0003223   1.8772 358.2126 14.58946641564145"},{"id":"41185","name":"ORBCOMM FM 113","type":"PAYLOAD","l1":"1 41185U 15081G   26203.73217801  .00000254  00000-0  89926-4 0  9995","l2":"2 41185  47.0007 102.5527 0001796 352.2548   7.8310 14.58887527564125"},{"id":"41187","name":"ORBCOMM FM 108","type":"PAYLOAD","l1":"1 41187U 15081J   26203.89947903  .00000496  00000-0  14091-3 0  9995","l2":"2 41187  47.0060  13.3435 0002144 352.8981   7.1874 14.58918326565297"},{"id":"41188","name":"ORBCOMM FM 117","type":"PAYLOAD","l1":"1 41188U 15081K   26203.86528108  .00000476  00000-0  13688-3 0  9994","l2":"2 41188  47.0023  12.1305 0002530   1.4787 358.6105 14.58905160565338"},{"id":"41189","name":"ORBCOMM FM 116","type":"PAYLOAD","l1":"1 41189U 15081L   26203.77688434  .00000410  00000-0  12282-3 0  9991","l2":"2 41189  47.0022 102.3380 0001738 249.3341 110.7358 14.58913947564137"}]}